ONEWEB-0384             
1 49310U 21090AH  26039.20017887 -.00055829  00000+0 -13898+0 0  9990
2 49310  87.9203 300.2161 0005662  57.9624 302.2058 13.20377559212808
ONEWEB-0385             
1 49311U 21090AJ  26039.27555804 -.00009883  00000+0 -24395-1 0  9999
2 49311  87.9239 300.1665 0001444  87.5045 272.6254 13.20692201212785
ONEWEB-0386             
1 49312U 21090AK  26039.21709260  .00000134  00000+0  29801-3 0  9998
2 49312  87.9217 300.1638 0001655  67.1801 292.9507 13.20771875212792
ONEWEB-0387             
1 49313U 21090AL  26039.27707272  .00000120  00000+0  26435-3 0  9991
2 49313  87.9207 300.1924 0001961  74.8647 285.2704 13.20771108212808
ONEWEB-0388             
1 49314U 21090AM  26039.21601561  .00000617  00000+0  15090-2 0  9995
2 49314  87.9244 330.6465 0001787  71.2309 288.9017 13.19722364209407
ONEWEB-0389             
1 50469U 21132A   26039.03128926  .00000014  00000+0  23182-5 0  9999
2 50469  87.9102  31.5274 0002099  79.6109 280.5259 13.17650239201075
ONEWEB-0390             
1 50470U 21132B   26038.95705115  .00000040  00000+0  70565-4 0  9997
2 50470  87.9101  31.5428 0002016  92.9019 267.2344 13.17649598201066
ONEWEB-0391             
1 50471U 21132C   26039.03466621  .00000006  00000+0 -18786-4 0  9994
2 50471  87.9097  31.5368 0002677  81.1024 279.0410 13.17647369201073
ONEWEB-0392             
1 50472U 21132D   26038.98910010  .00000002  00000+0 -27780-4 0  9994
2 50472  87.9111  31.5030 0002175  81.1984 278.9394 13.17651316201105
ONEWEB-0393             
1 50473U 21132E   26038.96225405  .00000060  00000+0  12065-3 0  9992
2 50473  87.9111  31.5318 0002000  83.7993 276.3366 13.17649789201090
ONEWEB-0394             
1 50474U 21132F   26039.25954734  .00000142  00000+0  32719-3 0  9999
2 50474  87.9223   1.0349 0001911  77.7173 282.4174 13.18687318204600
ONEWEB-0395             
1 50475U 21132G   26039.07291144  .00000317  00000+0  85873-3 0  9992
2 50475  87.8820  46.7625 0002057  91.9243 268.2120 13.11416851198794
ONEWEB-0396             
1 50476U 21132H   26039.25295052 -.00000101  00000+0 -28953-3 0  9994
2 50476  87.9223   1.0477 0001884  78.6368 281.4976 13.18686418204642
ONEWEB-0397             
1 50477U 21132J   26039.26777865  .00000108  00000+0  24131-3 0  9992
2 50477  87.9223   1.0447 0001810  73.8538 286.2794 13.18688387204621
ONEWEB-0398             
1 50478U 21132K   26039.04068411 -.00000509  00000+0 -14721-2 0  9999
2 50478  87.8827  46.7471 0002128  99.2656 260.8713 13.11416297198689
ONEWEB-0399             
1 50479U 21132L   26039.02713112 -.00000037  00000+0 -14145-3 0  9990
2 50479  87.8820  46.7601 0002129  75.6592 284.4772 13.11415086198677
ONEWEB-0400             
1 50480U 21132M   26039.24635579 -.00000044  00000+0 -14496-3 0  9993
2 50480  87.9224   1.0390 0001915  87.7079 272.4272 13.18685867204610
