[{"OBJECT_NAME":"ONEWEB-0384","OBJECT_ID":"2021-090AH","EPOCH":"2026-02-08T04:48:15.454368","MEAN_MOTION":13.20377559,"ECCENTRICITY":0.0005662,"INCLINATION":87.9203,"RA_OF_ASC_NODE":300.2161,"ARG_OF_PERICENTER":57.9624,"MEAN_ANOMALY":302.2058,"EPHEMERIS_TYPE":0,"CLASSIFICATION_TYPE":"U","NORAD_CAT_ID":49310,"ELEMENT_SET_NO":999,"REV_AT_EPOCH":21280,"BSTAR":-0.13898439,"MEAN_MOTION_DOT":-0.00055829,"MEAN_MOTION_DDOT":0},{"OBJECT_NAME":"ONEWEB-0385","OBJECT_ID":"2021-090AJ","EPOCH":"2026-02-08T06:36:48.214656","MEAN_MOTION":13.20692201,"ECCENTRICITY":0.00014445,"INCLINATION":87.9239,"RA_OF_ASC_NODE":300.1665,"ARG_OF_PERICENTER":87.5045,"MEAN_ANOMALY":272.6254,"EPHEMERIS_TYPE":0,"CLASSIFICATION_TYPE":"U","NORAD_CAT_ID":49311,"ELEMENT_SET_NO":999,"REV_AT_EPOCH":21278,"BSTAR":-0.024394963,"MEAN_MOTION_DOT":-9.883e-5,"MEAN_MOTION_DDOT":0},{"OBJECT_NAME":"ONEWEB-0386","OBJECT_ID":"2021-090AK","EPOCH":"2026-02-08T05:12:36.800640","MEAN_MOTION":13.20771875,"ECCENTRICITY":0.00016557,"INCLINATION":87.9217,"RA_OF_ASC_NODE":300.1638,"ARG_OF_PERICENTER":67.1801,"MEAN_ANOMALY":292.9507,"EPHEMERIS_TYPE":0,"CLASSIFICATION_TYPE":"U","NORAD_CAT_ID":49312,"ELEMENT_SET_NO":999,"REV_AT_EPOCH":21279,"BSTAR":0.00029801318,"MEAN_MOTION_DOT":1.34e-6,"MEAN_MOTION_DDOT":0},{"OBJECT_NAME":"ONEWEB-0387","OBJECT_ID":"2021-090AL","EPOCH":"2026-02-08T06:38:59.083008","MEAN_MOTION":13.20771108,"ECCENTRICITY":0.00019615,"INCLINATION":87.9207,"RA_OF_ASC_NODE":300.1924,"ARG_OF_PERICENTER":74.8647,"MEAN_ANOMALY":285.2704,"EPHEMERIS_TYPE":0,"CLASSIFICATION_TYPE":"U","NORAD_CAT_ID":49313,"ELEMENT_SET_NO":999,"REV_AT_EPOCH":21280,"BSTAR":0.00026434958,"MEAN_MOTION_DOT":1.2e-6,"MEAN_MOTION_DDOT":0},{"OBJECT_NAME":"ONEWEB-0388","OBJECT_ID":"2021-090AM","EPOCH":"2026-02-08T05:11:03.748704","MEAN_MOTION":13.19722364,"ECCENTRICITY":0.00017872,"INCLINATION":87.9244,"RA_OF_ASC_NODE":330.6465,"ARG_OF_PERICENTER":71.2309,"MEAN_ANOMALY":288.9017,"EPHEMERIS_TYPE":0,"CLASSIFICATION_TYPE":"U","NORAD_CAT_ID":49314,"ELEMENT_SET_NO":999,"REV_AT_EPOCH":20940,"BSTAR":0.0015090012,"MEAN_MOTION_DOT":6.17e-6,"MEAN_MOTION_DDOT":0},{"OBJECT_NAME":"ONEWEB-0389","OBJECT_ID":"2021-132A","EPOCH":"2026-02-08T00:45:03.392064","MEAN_MOTION":13.17650239,"ECCENTRICITY":0.00020992,"INCLINATION":87.9102,"RA_OF_ASC_NODE":31.5274,"ARG_OF_PERICENTER":79.6109,"MEAN_ANOMALY":280.5259,"EPHEMERIS_TYPE":0,"CLASSIFICATION_TYPE":"U","NORAD_CAT_ID":50469,"ELEMENT_SET_NO":999,"REV_AT_EPOCH":20107,"BSTAR":2.318229e-6,"MEAN_MOTION_DOT":1.4e-7,"MEAN_MOTION_DDOT":0},{"OBJECT_NAME":"ONEWEB-0390","OBJECT_ID":"2021-132B","EPOCH":"2026-02-07T22:58:09.219360","MEAN_MOTION":13.17649598,"ECCENTRICITY":0.0002016,"INCLINATION":87.9101,"RA_OF_ASC_NODE":31.5428,"ARG_OF_PERICENTER":92.9019,"MEAN_ANOMALY":267.2344,"EPHEMERIS_TYPE":0,"CLASSIFICATION_TYPE":"U","NORAD_CAT_ID":50470,"ELEMENT_SET_NO":999,"REV_AT_EPOCH":20106,"BSTAR":7.0565e-5,"MEAN_MOTION_DOT":4.0e-7,"MEAN_MOTION_DDOT":0},{"OBJECT_NAME":"ONEWEB-0391","OBJECT_ID":"2021-132C","EPOCH":"2026-02-08T00:49:55.160544","MEAN_MOTION":13.17647369,"ECCENTRICITY":0.00026771,"INCLINATION":87.9097,"RA_OF_ASC_NODE":31.5368,"ARG_OF_PERICENTER":81.1024,"MEAN_ANOMALY":279.041,"EPHEMERIS_TYPE":0,"CLASSIFICATION_TYPE":"U","NORAD_CAT_ID":50471,"ELEMENT_SET_NO":999,"REV_AT_EPOCH":20107,"BSTAR":-1.8786302e-5,"MEAN_MOTION_DOT":6.0e-8,"MEAN_MOTION_DDOT":0},{"OBJECT_NAME":"ONEWEB-0392","OBJECT_ID":"2021-132D","EPOCH":"2026-02-07T23:44:18.248640","MEAN_MOTION":13.17651316,"ECCENTRICITY":0.0002175,"INCLINATION":87.9111,"RA_OF_ASC_NODE":31.503,"ARG_OF_PERICENTER":81.1984,"MEAN_ANOMALY":278.9394,"EPHEMERIS_TYPE":0,"CLASSIFICATION_TYPE":"U","NORAD_CAT_ID":50472,"ELEMENT_SET_NO":999,"REV_AT_EPOCH":20110,"BSTAR":-2.778e-5,"MEAN_MOTION_DOT":2.0e-8,"MEAN_MOTION_DDOT":0},{"OBJECT_NAME":"ONEWEB-0393","OBJECT_ID":"2021-132E","EPOCH":"2026-02-07T23:05:38.749920","MEAN_MOTION":13.17649789,"ECCENTRICITY":0.0002,"INCLINATION":87.9111,"RA_OF_ASC_NODE":31.5318,"ARG_OF_PERICENTER":83.7993,"MEAN_ANOMALY":276.3366,"EPHEMERIS_TYPE":0,"CLASSIFICATION_TYPE":"U","NORAD_CAT_ID":50473,"ELEMENT_SET_NO":999,"REV_AT_EPOCH":20109,"BSTAR":0.00012065,"MEAN_MOTION_DOT":6.0e-7,"MEAN_MOTION_DDOT":0},{"OBJECT_NAME":"ONEWEB-0394","OBJECT_ID":"2021-132F","EPOCH":"2026-02-08T06:13:44.890176","MEAN_MOTION":13.18687318,"ECCENTRICITY":0.00019111,"INCLINATION":87.9223,"RA_OF_ASC_NODE":1.0349,"ARG_OF_PERICENTER":77.7173,"MEAN_ANOMALY":282.4174,"EPHEMERIS_TYPE":0,"CLASSIFICATION_TYPE":"U","NORAD_CAT_ID":50474,"ELEMENT_SET_NO":999,"REV_AT_EPOCH":20460,"BSTAR":0.00032718752,"MEAN_MOTION_DOT":1.42e-6,"MEAN_MOTION_DDOT":0},{"OBJECT_NAME":"ONEWEB-0395","OBJECT_ID":"2021-132G","EPOCH":"2026-02-08T01:44:59.548416","MEAN_MOTION":13.11416851,"ECCENTRICITY":0.00020579,"INCLINATION":87.882,"RA_OF_ASC_NODE":46.7625,"ARG_OF_PERICENTER":91.9243,"MEAN_ANOMALY":268.212,"EPHEMERIS_TYPE":0,"CLASSIFICATION_TYPE":"U","NORAD_CAT_ID":50475,"ELEMENT_SET_NO":999,"REV_AT_EPOCH":19879,"BSTAR":0.00085873224,"MEAN_MOTION_DOT":3.17e-6,"MEAN_MOTION_DDOT":0},{"OBJECT_NAME":"ONEWEB-0396","OBJECT_ID":"2021-132H","EPOCH":"2026-02-08T06:04:14.924928","MEAN_MOTION":13.18686418,"ECCENTRICITY":0.00018845,"INCLINATION":87.9223,"RA_OF_ASC_NODE":1.0477,"ARG_OF_PERICENTER":78.6368,"MEAN_ANOMALY":281.4976,"EPHEMERIS_TYPE":0,"CLASSIFICATION_TYPE":"U","NORAD_CAT_ID":50476,"ELEMENT_SET_NO":999,"REV_AT_EPOCH":20464,"BSTAR":-0.00028952762,"MEAN_MOTION_DOT":-1.01e-6,"MEAN_MOTION_DDOT":0},{"OBJECT_NAME":"ONEWEB-0397","OBJECT_ID":"2021-132J","EPOCH":"2026-02-08T06:25:36.075360","MEAN_MOTION":13.18688387,"ECCENTRICITY":0.00018101,"INCLINATION":87.9223,"RA_OF_ASC_NODE":1.0447,"ARG_OF_PERICENTER":73.8538,"MEAN_ANOMALY":286.2794,"EPHEMERIS_TYPE":0,"CLASSIFICATION_TYPE":"U","NORAD_CAT_ID":50477,"ELEMENT_SET_NO":999,"REV_AT_EPOCH":20462,"BSTAR":0.00024130804,"MEAN_MOTION_DOT":1.08e-6,"MEAN_MOTION_DDOT":0},{"OBJECT_NAME":"ONEWEB-0398","OBJECT_ID":"2021-132K","EPOCH":"2026-02-08T00:58:35.107104","MEAN_MOTION":13.11416297,"ECCENTRICITY":0.00021288,"INCLINATION":87.8827,"RA_OF_ASC_NODE":46.7471,"ARG_OF_PERICENTER":99.2656,"MEAN_ANOMALY":260.8713,"EPHEMERIS_TYPE":0,"CLASSIFICATION_TYPE":"U","NORAD_CAT_ID":50478,"ELEMENT_SET_NO":999,"REV_AT_EPOCH":19868,"BSTAR":-0.0014721168,"MEAN_MOTION_DOT":-5.09e-6,"MEAN_MOTION_DDOT":0},{"OBJECT_NAME":"ONEWEB-0399","OBJECT_ID":"2021-132L","EPOCH":"2026-02-08T00:39:04.128768","MEAN_MOTION":13.11415086,"ECCENTRICITY":0.00021292,"INCLINATION":87.882,"RA_OF_ASC_NODE":46.7601,"ARG_OF_PERICENTER":75.6592,"MEAN_ANOMALY":284.4772,"EPHEMERIS_TYPE":0,"CLASSIFICATION_TYPE":"U","NORAD_CAT_ID":50479,"ELEMENT_SET_NO":999,"REV_AT_EPOCH":19867,"BSTAR":-0.00014144961,"MEAN_MOTION_DOT":-3.7e-7,"MEAN_MOTION_DDOT":0},{"OBJECT_NAME":"ONEWEB-0400","OBJECT_ID":"2021-132M","EPOCH":"2026-02-08T05:54:45.140256","MEAN_MOTION":13.18685867,"ECCENTRICITY":0.00019154,"INCLINATION":87.9224,"RA_OF_ASC_NODE":1.039,"ARG_OF_PERICENTER":87.7079,"MEAN_ANOMALY":272.4272,"EPHEMERIS_TYPE":0,"CLASSIFICATION_TYPE":"U","NORAD_CAT_ID":50480,"ELEMENT_SET_NO":999,"REV_AT_EPOCH":20461,"BSTAR":-0.00014496251,"MEAN_MOTION_DOT":-4.4e-7,"MEAN_MOTION_DDOT":0}]
